[
    [
        "GPS BIIR-5  (PRN 22)",
        "1 26407U 00040A   26130.40916068  .00000002  00000+0  00000+0 0  9999",
        "2 26407  54.8580 216.6628 0121441 302.3501  64.5345  2.00557393189198"
    ],
    [
        "GPS BIIR-8  (PRN 16)",
        "1 27663U 03005A   26131.21267404  .00000007  00000+0  00000+0 0  9996",
        "2 27663  54.8889 216.4379 0148047  53.0030 309.5006  2.00562542170574"
    ],
    [
        "GPS BIIR-11 (PRN 19)",
        "1 28190U 04009A   26130.98517066 -.00000028  00000+0  00000+0 0  9996",
        "2 28190  54.8619 277.1896 0114397 171.4377 180.8159  2.00555923162192"
    ],
    [
        "GPS BIIR-13 (PRN 02)",
        "1 28474U 04045A   26131.15525007 -.00000047  00000+0  00000+0 0  9996",
        "2 28474  55.1577 326.3876 0169917 315.4237 224.7260  2.00554230157681"
    ],
    [
        "GPS BIIRM-1 (PRN 17)",
        "1 28874U 05038A   26130.21440053 -.00000025  00000+0  00000+0 0  9992",
        "2 28874  54.9105 274.7092 0127733 295.9284 246.8679  2.00568332151073"
    ],
    [
        "GPS BIIRM-2 (PRN 31)",
        "1 29486U 06042A   26131.11793912  .00000102  00000+0  00000+0 0  9998",
        "2 29486  54.7051 152.8106 0106143  53.6775 319.4217  2.00571966143656"
    ],
    [
        "GPS BIIRM-3 (PRN 12)",
        "1 29601U 06052A   26128.53082923  .00000000  00000+0  00000+0 0  9990",
        "2 29601  54.9408 215.5782 0086081  90.4403 270.5959  2.00555977142614"
    ],
    [
        "GPS BIIRM-4 (PRN 15)",
        "1 32260U 07047A   26130.33146954  .00000018  00000+0  00000+0 0  9995",
        "2 32260  54.0683  81.6255 0165215  86.6951 275.1751  2.00557185136059"
    ],
    [
        "GPS BIIRM-5 (PRN 29)",
        "1 32384U 07062A   26129.63517031 -.00000023  00000+0  00000+0 0  9995",
        "2 32384  55.0637 275.7021 0034901 163.1437 181.1290  2.00557631134733"
    ],
    [
        "GPS BIIRM-8 (PRN 05)",
        "1 35752U 09043A   26128.74685612 -.00000076  00000+0  00000+0 0  9998",
        "2 35752  56.1866  29.0012 0053239  81.7189 288.3585  2.00556491122574"
    ],
    [
        "GPS BIIF-1  (PRN 25)",
        "1 36585U 10022A   26131.14996850  .00000015  00000+0  00000+0 0  9991",
        "2 36585  54.2744 210.0542 0126484  66.1077 356.5732  2.00560594116854"
    ],
    [
        "GPS BIIF-3  (PRN 24)",
        "1 38833U 12053A   26130.42519847  .00000096  00000+0  00000+0 0  9991",
        "2 38833  53.5781 145.1463 0178471  65.3136 296.5819  2.00566911 98683"
    ],
    [
        "GPS BIIF-4  (PRN 27)",
        "1 39166U 13023A   26129.29399612 -.00000022  00000+0  00000+0 0  9998",
        "2 39166  54.5360 270.5574 0141860  50.7897 310.4448  2.00563750 95103"
    ],
    [
        "GPS BIIF-5  (PRN 30)",
        "1 39533U 14008A   26129.29503274  .00000080  00000+0  00000+0 0  9994",
        "2 39533  53.6473 150.9061 0084017 230.4812 128.8233  2.00557352 88906"
    ],
    [
        "GPS BIIF-6  (PRN 06)",
        "1 39741U 14026A   26129.07202593 -.00000056  00000+0  00000+0 0  9995",
        "2 39741  56.5164 333.0405 0038702 326.8434  32.9447  2.00563972 87751"
    ],
    [
        "GPS BIIF-7  (PRN 09)",
        "1 40105U 14045A   26130.65878344  .00000039  00000+0  00000+0 0  9991",
        "2 40105  55.3294  89.9594 0031994 118.8507 241.4543  2.00555944 85325"
    ],
    [
        "GPS BIIF-8  (PRN 03)",
        "1 40294U 14068A   26130.53168760 -.00000070  00000+0  00000+0 0  9992",
        "2 40294  56.9628  32.4059 0065885  69.2856 291.4473  2.00573912 84458"
    ],
    [
        "GPS BIIF-9  (PRN 26)",
        "1 40534U 15013A   26131.16585397  .00000021  00000+0  00000+0 0  9994",
        "2 40534  53.1716 205.7089 0108950  40.0129 320.8457  2.00553594 81080"
    ],
    [
        "GPS BIIF-10 (PRN 08)",
        "1 40730U 15033A   26129.82930871 -.00000025  00000+0  00000+0 0  9990",
        "2 40730  54.0138 268.6674 0115016  30.0157 330.6220  2.00558236 79223"
    ],
    [
        "GPS BIIF-11 (PRN 10)",
        "1 41019U 15062A   26130.88392657 -.00000070  00000+0  00000+0 0  9995",
        "2 41019  56.9354  32.2486 0111320 231.4058 127.6216  2.00567033 77088"
    ],
    [
        "GPS BIIF-12 (PRN 32)",
        "1 41328U 16007A   26130.97252753  .00000042  00000+0  00000+0 0  9998",
        "2 41328  55.5019  90.9342 0096128 247.2269 111.7395  2.00553487 75092"
    ],
    [
        "GPS BIII-1  (PRN 04)",
        "1 43873U 18109A   26131.13482975  .00000048  00000+0  00000+0 0  9996",
        "2 43873  55.6600  93.6482 0038069 198.7693 171.6866  2.00560014 54338"
    ],
    [
        "GPS BIII-2  (PRN 18)",
        "1 44506U 19056A   26130.25825404 -.00000053  00000+0  00000+0 0  9999",
        "2 44506  55.6545 332.6508 0060147 197.3681 162.7587  2.00569435 49318"
    ],
    [
        "GPS BIII-3  (PRN 23)",
        "1 45854U 20041A   26128.08857494 -.00000075  00000+0  00000+0 0  9998",
        "2 45854  56.6449  30.5000 0062533 204.8784 328.5903  2.00559772 43231"
    ],
    [
        "GPS BIII-4  (PRN 14)",
        "1 46826U 20078A   26129.38239204  .00000003  00000+0  00000+0 0  9995",
        "2 46826  53.9858 212.3527 0071729 206.0993 156.6530  2.00564990 40738"
    ],
    [
        "GPS BIII-5  (PRN 11)",
        "1 48859U 21054A   26129.62249819 -.00000058  00000+0  00000+0 0  9999",
        "2 48859  55.1919 334.0107 0024328 229.2058 132.7073  2.00571667 35983"
    ],
    [
        "GPS BIII-6  (PRN 28)",
        "1 55268U 23009A   26126.56820279  .00000055  00000+0  00000+0 0  9994",
        "2 55268  55.1158 150.1548 0005801 314.7345  39.4736  2.00574558 24406"
    ],
    [
        "GPS BIII-7  (PRN 01)",
        "1 62339U 24242A   26131.19106405 -.00000056  00000+0  00000+0 0  9996",
        "2 62339  54.8655 335.6820 0017049   3.2250 171.7547  2.00570943 10517"
    ],
    [
        "GPS BIII-8  (PRN 21)",
        "1 64202U 25116A   26120.52613795 -.00000106  00000+0  00000+0 0  9994",
        "2 64202  55.2044  33.0485 0009185 336.4647 239.4016  2.00549603  6915"
    ],
    [
        "GPS BIII-9  (PRN 20)",
        "1 67588U 26017A   26126.81683976  .00000020  00000+0  00000+0 0  9995",
        "2 67588  55.0623  90.4149 0023214 254.6508 105.0678  2.00572106430788"
    ]
]